ELECTRON KICK STAGE R/B 
1 68801U 26088K   26114.88540975  .00255201  23514-5  32364-3 0  9993
2 68801  97.4749 265.6383 0259042 258.0339  99.1777 15.66715126   279
2026-090A               
1 68826U 26090A   26114.73803336  .00037958  00000+0  20267-3 0  9995
2 68826  96.6459  34.2833 0011850 244.0774 115.9275 15.80198214   220
2026-090B               
1 68827U 26090B   26114.67468931  .00037787  00000+0  20159-3 0  9997
2 68827  96.6473  34.2234 0011965 243.5513 116.4530 15.80215914   210
2026-090C               
1 68828U 26090C   26114.73795262  .00038137  00000+0  20274-3 0  9993
2 68828  96.6472  34.2814 0011834 242.5779 117.4288 15.80294056   228
2026-090D               
1 68829U 26090D   26114.73793650  .00031010  00000+0  16485-3 0  9995
2 68829  96.6466  34.2825 0012600 241.1997 118.8008 15.80312640   228
HULIANWANG JISHU SHIYAN*
1 68831U 26091A   26115.69894395  .00000930  00000+0  58016-4 0  9997
2 68831  55.0007 251.0483 0008831 282.9210  77.0823 15.19538187   221
HULIANWANG JISHU SHIYAN*
1 68832U 26091B   26115.69919446  .00000945  00000+0  59102-4 0  9996
2 68832  55.0007 251.0474 0008809 274.1271  85.8742 15.19266122   221
HULIANWANG JISHU SHIYAN*
1 68833U 26091C   26115.69871071  .00002534  00000+0  13160-3 0  9997
2 68833  54.9991 251.0488 0009043 289.7220  70.2824 15.19791577   220
HULIANWANG JISHU SHIYAN*
1 68834U 26091D   26115.69842463  .00000902  00000+0  55877-4 0  9990
2 68834  54.9996 251.0434 0009031 298.8523  61.1590 15.20094563   223
