[{"OBJECT_NAME":"ELECTRON KICK STAGE R/B","OBJECT_ID":"2026-088K","EPOCH":"2026-04-24T21:14:59.402400","MEAN_MOTION":15.66715126,"ECCENTRICITY":0.02590428,"INCLINATION":97.4749,"RA_OF_ASC_NODE":265.6383,"ARG_OF_PERICENTER":258.0339,"MEAN_ANOMALY":99.1777,"EPHEMERIS_TYPE":0,"CLASSIFICATION_TYPE":"U","NORAD_CAT_ID":68801,"ELEMENT_SET_NO":999,"REV_AT_EPOCH":27,"BSTAR":0.00032363723,"MEAN_MOTION_DOT":0.00255201,"MEAN_MOTION_DDOT":2.351446e-6},{"OBJECT_NAME":"2026-090A","OBJECT_ID":"2026-090A","EPOCH":"2026-04-24T17:42:46.082304","MEAN_MOTION":15.80198214,"ECCENTRICITY":0.00118509,"INCLINATION":96.6459,"RA_OF_ASC_NODE":34.2833,"ARG_OF_PERICENTER":244.0774,"MEAN_ANOMALY":115.9275,"EPHEMERIS_TYPE":0,"CLASSIFICATION_TYPE":"U","NORAD_CAT_ID":68826,"ELEMENT_SET_NO":999,"REV_AT_EPOCH":22,"BSTAR":0.00020266948,"MEAN_MOTION_DOT":0.00037958,"MEAN_MOTION_DDOT":0},{"OBJECT_NAME":"2026-090B","OBJECT_ID":"2026-090B","EPOCH":"2026-04-24T16:11:33.156384","MEAN_MOTION":15.80215914,"ECCENTRICITY":0.0011965,"INCLINATION":96.6473,"RA_OF_ASC_NODE":34.2234,"ARG_OF_PERICENTER":243.5513,"MEAN_ANOMALY":116.453,"EPHEMERIS_TYPE":0,"CLASSIFICATION_TYPE":"U","NORAD_CAT_ID":68827,"ELEMENT_SET_NO":999,"REV_AT_EPOCH":21,"BSTAR":0.00020158548,"MEAN_MOTION_DOT":0.00037787,"MEAN_MOTION_DDOT":0},{"OBJECT_NAME":"2026-090C","OBJECT_ID":"2026-090C","EPOCH":"2026-04-24T17:42:39.106368","MEAN_MOTION":15.80294056,"ECCENTRICITY":0.00118341,"INCLINATION":96.6472,"RA_OF_ASC_NODE":34.2814,"ARG_OF_PERICENTER":242.5779,"MEAN_ANOMALY":117.4288,"EPHEMERIS_TYPE":0,"CLASSIFICATION_TYPE":"U","NORAD_CAT_ID":68828,"ELEMENT_SET_NO":999,"REV_AT_EPOCH":22,"BSTAR":0.00020273735,"MEAN_MOTION_DOT":0.00038137,"MEAN_MOTION_DDOT":0},{"OBJECT_NAME":"2026-090D","OBJECT_ID":"2026-090D","EPOCH":"2026-04-24T17:42:37.713600","MEAN_MOTION":15.8031264,"ECCENTRICITY":0.00126008,"INCLINATION":96.6466,"RA_OF_ASC_NODE":34.2825,"ARG_OF_PERICENTER":241.1997,"MEAN_ANOMALY":118.8008,"EPHEMERIS_TYPE":0,"CLASSIFICATION_TYPE":"U","NORAD_CAT_ID":68829,"ELEMENT_SET_NO":999,"REV_AT_EPOCH":22,"BSTAR":0.00016485309,"MEAN_MOTION_DOT":0.0003101,"MEAN_MOTION_DDOT":0},{"OBJECT_NAME":"HULIANWANG JISHU SHIYAN OBJECT A","OBJECT_ID":"2026-091A","EPOCH":"2026-04-25T16:46:28.757280","MEAN_MOTION":15.19538187,"ECCENTRICITY":0.0008831,"INCLINATION":55.0007,"RA_OF_ASC_NODE":251.0483,"ARG_OF_PERICENTER":282.921,"MEAN_ANOMALY":77.0823,"EPHEMERIS_TYPE":0,"CLASSIFICATION_TYPE":"U","NORAD_CAT_ID":68831,"ELEMENT_SET_NO":999,"REV_AT_EPOCH":22,"BSTAR":5.8016e-5,"MEAN_MOTION_DOT":9.3e-6,"MEAN_MOTION_DDOT":0},{"OBJECT_NAME":"HULIANWANG JISHU SHIYAN OBJECT B","OBJECT_ID":"2026-091B","EPOCH":"2026-04-25T16:46:50.401344","MEAN_MOTION":15.19266122,"ECCENTRICITY":0.0008809,"INCLINATION":55.0007,"RA_OF_ASC_NODE":251.0474,"ARG_OF_PERICENTER":274.1271,"MEAN_ANOMALY":85.8742,"EPHEMERIS_TYPE":0,"CLASSIFICATION_TYPE":"U","NORAD_CAT_ID":68832,"ELEMENT_SET_NO":999,"REV_AT_EPOCH":22,"BSTAR":5.9102e-5,"MEAN_MOTION_DOT":9.45e-6,"MEAN_MOTION_DDOT":0},{"OBJECT_NAME":"HULIANWANG JISHU SHIYAN OBJECT C","OBJECT_ID":"2026-091C","EPOCH":"2026-04-25T16:46:08.605344","MEAN_MOTION":15.19791577,"ECCENTRICITY":0.0009044,"INCLINATION":54.9991,"RA_OF_ASC_NODE":251.0488,"ARG_OF_PERICENTER":289.722,"MEAN_ANOMALY":70.2824,"EPHEMERIS_TYPE":0,"CLASSIFICATION_TYPE":"U","NORAD_CAT_ID":68833,"ELEMENT_SET_NO":999,"REV_AT_EPOCH":22,"BSTAR":0.0001316,"MEAN_MOTION_DOT":2.534e-5,"MEAN_MOTION_DDOT":0},{"OBJECT_NAME":"HULIANWANG JISHU SHIYAN OBJECT D","OBJECT_ID":"2026-091D","EPOCH":"2026-04-25T16:45:43.888032","MEAN_MOTION":15.20094563,"ECCENTRICITY":0.0009031,"INCLINATION":54.9996,"RA_OF_ASC_NODE":251.0434,"ARG_OF_PERICENTER":298.8523,"MEAN_ANOMALY":61.159,"EPHEMERIS_TYPE":0,"CLASSIFICATION_TYPE":"U","NORAD_CAT_ID":68834,"ELEMENT_SET_NO":999,"REV_AT_EPOCH":22,"BSTAR":5.5877e-5,"MEAN_MOTION_DOT":9.02e-6,"MEAN_MOTION_DDOT":0}]
